[{"OBJECT_NAME":"STARLINK-30323","OBJECT_ID":"2023-122C","EPOCH":"2026-03-09T22:00:01.999584","MEAN_MOTION":15.17663714,"ECCENTRICITY":0.00017377,"INCLINATION":43,"RA_OF_ASC_NODE":79.518,"ARG_OF_PERICENTER":244.0947,"MEAN_ANOMALY":324.1358,"EPHEMERIS_TYPE":0,"CLASSIFICATION_TYPE":"U","NORAD_CAT_ID":57634,"ELEMENT_SET_NO":999,"REV_AT_EPOCH":572,"BSTAR":0.059578562,"MEAN_MOTION_DOT":0.01326411,"MEAN_MOTION_DDOT":0},{"OBJECT_NAME":"CZ-4 DEB","OBJECT_ID":"2003-049H","EPOCH":"2026-03-08T08:27:28.944576","MEAN_MOTION":15.27137095,"ECCENTRICITY":0.00307627,"INCLINATION":98.6284,"RA_OF_ASC_NODE":272.5918,"ARG_OF_PERICENTER":169.0311,"MEAN_ANOMALY":191.1601,"EPHEMERIS_TYPE":0,"CLASSIFICATION_TYPE":"U","NORAD_CAT_ID":35381,"ELEMENT_SET_NO":999,"REV_AT_EPOCH":18390,"BSTAR":0.0032047887,"MEAN_MOTION_DOT":0.00087287,"MEAN_MOTION_DDOT":0}]
